STARLINK-36688          
1 67656U 26022J   26037.83335647 -.01284691  55064-3 -19313-2 0  9994
2 67656  97.2827  70.0816 0001351  67.7811  89.7155 16.04762585  1931
STARLINK-36706          
1 67657U 26022K   26037.83335647 -.01276247  54486-3 -19027-2 0  9992
2 67657  97.2826  70.0819 0001311  69.1006  89.4048 16.04899948  1901
STARLINK-36701          
1 67658U 26022L   26037.83335647 -.01272319  54277-3 -18791-2 0  9994
2 67658  97.2827  70.0827 0001311  73.6562  85.9221 16.05055573  1935
STARLINK-36642          
1 67659U 26022M   26037.83335647 -.01264503  53731-3 -18554-2 0  9992
2 67659  97.2828  70.0832 0001283  74.6688  85.7902 16.05162666  1937
STARLINK-36673          
1 67660U 26022N   26037.83335647 -.01253130  52936-3 -18220-2 0  9994
2 67660  97.2824  70.0833 0001277  74.4627  87.0618 16.05311981  1935
STARLINK-36674          
1 67661U 26022P   26037.83335647 -.01240029  51982-3 -17914-2 0  9997
2 67661  97.2825  70.0837 0001314  71.1631  91.2463 16.05415775  1933
STARLINK-36700          
1 67662U 26022Q   26037.83335647 -.01241040  52245-3 -17614-2 0  9992
2 67662  97.2823  70.0846 0001277  72.8401  91.6143 16.05707052  1934
STARLINK-36675          
1 67663U 26022R   26037.83335647 -.01241773  52211-3 -17779-2 0  9991
2 67663  97.2824  70.0842 0001301  69.0391  94.3997 16.05563693  1934
STARLINK-36404          
1 67664U 26022S   26037.83335647 -.01238114  52115-3 -17409-2 0  9990
2 67664  97.2820  70.0847 0001273  74.3671  91.0991 16.05859815  1903
STARLINK-36399          
1 67665U 26022T   26037.83335647 -.01223527  51039-3 -17110-2 0  9996
2 67665  97.2820  70.0854 0001234  75.2075  91.1186 16.05947459  1906
STARLINK-36365          
1 67666U 26022U   26037.83335647 -.01212758  50308-3 -16796-2 0  9998
2 67666  97.2820  70.0859 0001283  69.8177  97.5906 16.06104194  1933
STARLINK-36622          
1 67667U 26022V   26037.83335647 -.01198056  49285-3 -16423-2 0  9992
2 67667  97.2820  70.0862 0001203  74.0427  94.4790 16.06269424  1931
