CCSDS_OMM_VERS = 2.0
CREATION_DATE  = 
ORIGINATOR     = 

OBJECT_NAME    = STARLINK-36688
OBJECT_ID      = 2026-022J
CENTER_NAME    = EARTH
REF_FRAME      = TEME
TIME_SYSTEM    = UTC
MEAN_ELEMENT_THEORY = SGP/SGP4

EPOCH          = 2026-02-06T20:00:01.999008
MEAN_MOTION    = 16.04762585
ECCENTRICITY   = .0001351
INCLINATION    = 97.2827
RA_OF_ASC_NODE = 70.0816
ARG_OF_PERICENTER = 67.7811
MEAN_ANOMALY   = 89.7155

EPHEMERIS_TYPE = 0
CLASSIFICATION_TYPE = U
NORAD_CAT_ID   = 67656
ELEMENT_SET_NO = 999
REV_AT_EPOCH   = 193
BSTAR          = -.19313E-2
MEAN_MOTION_DOT = -.1284691E-1
MEAN_MOTION_DDOT = .55064E-3

CCSDS_OMM_VERS = 2.0
CREATION_DATE  = 
ORIGINATOR     = 

OBJECT_NAME    = STARLINK-36706
OBJECT_ID      = 2026-022K
CENTER_NAME    = EARTH
REF_FRAME      = TEME
TIME_SYSTEM    = UTC
MEAN_ELEMENT_THEORY = SGP/SGP4

EPOCH          = 2026-02-06T20:00:01.999008
MEAN_MOTION    = 16.04899948
ECCENTRICITY   = .0001311
INCLINATION    = 97.2826
RA_OF_ASC_NODE = 70.0819
ARG_OF_PERICENTER = 69.1006
MEAN_ANOMALY   = 89.4048

EPHEMERIS_TYPE = 0
CLASSIFICATION_TYPE = U
NORAD_CAT_ID   = 67657
ELEMENT_SET_NO = 999
REV_AT_EPOCH   = 190
BSTAR          = -.19027E-2
MEAN_MOTION_DOT = -.1276247E-1
MEAN_MOTION_DDOT = .54486E-3

CCSDS_OMM_VERS = 2.0
CREATION_DATE  = 
ORIGINATOR     = 

OBJECT_NAME    = STARLINK-36701
OBJECT_ID      = 2026-022L
CENTER_NAME    = EARTH
REF_FRAME      = TEME
TIME_SYSTEM    = UTC
MEAN_ELEMENT_THEORY = SGP/SGP4

EPOCH          = 2026-02-06T20:00:01.999008
MEAN_MOTION    = 16.05055573
ECCENTRICITY   = .0001311
INCLINATION    = 97.2827
RA_OF_ASC_NODE = 70.0827
ARG_OF_PERICENTER = 73.6562
MEAN_ANOMALY   = 85.9221

EPHEMERIS_TYPE = 0
CLASSIFICATION_TYPE = U
NORAD_CAT_ID   = 67658
ELEMENT_SET_NO = 999
REV_AT_EPOCH   = 193
BSTAR          = -.18791E-2
MEAN_MOTION_DOT = -.1272319E-1
MEAN_MOTION_DDOT = .54277E-3

CCSDS_OMM_VERS = 2.0
CREATION_DATE  = 
ORIGINATOR     = 

OBJECT_NAME    = STARLINK-36642
OBJECT_ID      = 2026-022M
CENTER_NAME    = EARTH
REF_FRAME      = TEME
TIME_SYSTEM    = UTC
MEAN_ELEMENT_THEORY = SGP/SGP4

EPOCH          = 2026-02-06T20:00:01.999008
MEAN_MOTION    = 16.05162666
ECCENTRICITY   = .0001283
INCLINATION    = 97.2828
RA_OF_ASC_NODE = 70.0832
ARG_OF_PERICENTER = 74.6688
MEAN_ANOMALY   = 85.7902

EPHEMERIS_TYPE = 0
CLASSIFICATION_TYPE = U
NORAD_CAT_ID   = 67659
ELEMENT_SET_NO = 999
REV_AT_EPOCH   = 193
BSTAR          = -.18554E-2
MEAN_MOTION_DOT = -.1264503E-1
MEAN_MOTION_DDOT = .53731E-3

CCSDS_OMM_VERS = 2.0
CREATION_DATE  = 
ORIGINATOR     = 

OBJECT_NAME    = STARLINK-36673
OBJECT_ID      = 2026-022N
CENTER_NAME    = EARTH
REF_FRAME      = TEME
TIME_SYSTEM    = UTC
MEAN_ELEMENT_THEORY = SGP/SGP4

EPOCH          = 2026-02-06T20:00:01.999008
MEAN_MOTION    = 16.05311981
ECCENTRICITY   = .0001277
INCLINATION    = 97.2824
RA_OF_ASC_NODE = 70.0833
ARG_OF_PERICENTER = 74.4627
MEAN_ANOMALY   = 87.0618

EPHEMERIS_TYPE = 0
CLASSIFICATION_TYPE = U
NORAD_CAT_ID   = 67660
ELEMENT_SET_NO = 999
REV_AT_EPOCH   = 193
BSTAR          = -.1822E-2
MEAN_MOTION_DOT = -.125313E-1
MEAN_MOTION_DDOT = .52936E-3

CCSDS_OMM_VERS = 2.0
CREATION_DATE  = 
ORIGINATOR     = 

OBJECT_NAME    = STARLINK-36674
OBJECT_ID      = 2026-022P
CENTER_NAME    = EARTH
REF_FRAME      = TEME
TIME_SYSTEM    = UTC
MEAN_ELEMENT_THEORY = SGP/SGP4

EPOCH          = 2026-02-06T20:00:01.999008
MEAN_MOTION    = 16.05415775
ECCENTRICITY   = .0001314
INCLINATION    = 97.2825
RA_OF_ASC_NODE = 70.0837
ARG_OF_PERICENTER = 71.1631
MEAN_ANOMALY   = 91.2463

EPHEMERIS_TYPE = 0
CLASSIFICATION_TYPE = U
NORAD_CAT_ID   = 67661
ELEMENT_SET_NO = 999
REV_AT_EPOCH   = 193
BSTAR          = -.17914E-2
MEAN_MOTION_DOT = -.1240029E-1
MEAN_MOTION_DDOT = .51982E-3

CCSDS_OMM_VERS = 2.0
CREATION_DATE  = 
ORIGINATOR     = 

OBJECT_NAME    = STARLINK-36700
OBJECT_ID      = 2026-022Q
CENTER_NAME    = EARTH
REF_FRAME      = TEME
TIME_SYSTEM    = UTC
MEAN_ELEMENT_THEORY = SGP/SGP4

EPOCH          = 2026-02-06T20:00:01.999008
MEAN_MOTION    = 16.05707052
ECCENTRICITY   = .0001277
INCLINATION    = 97.2823
RA_OF_ASC_NODE = 70.0846
ARG_OF_PERICENTER = 72.8401
MEAN_ANOMALY   = 91.6143

EPHEMERIS_TYPE = 0
CLASSIFICATION_TYPE = U
NORAD_CAT_ID   = 67662
ELEMENT_SET_NO = 999
REV_AT_EPOCH   = 193
BSTAR          = -.17614E-2
MEAN_MOTION_DOT = -.124104E-1
MEAN_MOTION_DDOT = .52245E-3

CCSDS_OMM_VERS = 2.0
CREATION_DATE  = 
ORIGINATOR     = 

OBJECT_NAME    = STARLINK-36675
OBJECT_ID      = 2026-022R
CENTER_NAME    = EARTH
REF_FRAME      = TEME
TIME_SYSTEM    = UTC
MEAN_ELEMENT_THEORY = SGP/SGP4

EPOCH          = 2026-02-06T20:00:01.999008
MEAN_MOTION    = 16.05563693
ECCENTRICITY   = .0001301
INCLINATION    = 97.2824
RA_OF_ASC_NODE = 70.0842
ARG_OF_PERICENTER = 69.0391
MEAN_ANOMALY   = 94.3997

EPHEMERIS_TYPE = 0
CLASSIFICATION_TYPE = U
NORAD_CAT_ID   = 67663
ELEMENT_SET_NO = 999
REV_AT_EPOCH   = 193
BSTAR          = -.17779E-2
MEAN_MOTION_DOT = -.1241773E-1
MEAN_MOTION_DDOT = .52211E-3

CCSDS_OMM_VERS = 2.0
CREATION_DATE  = 
ORIGINATOR     = 

OBJECT_NAME    = STARLINK-36404
OBJECT_ID      = 2026-022S
CENTER_NAME    = EARTH
REF_FRAME      = TEME
TIME_SYSTEM    = UTC
MEAN_ELEMENT_THEORY = SGP/SGP4

EPOCH          = 2026-02-06T20:00:01.999008
MEAN_MOTION    = 16.05859815
ECCENTRICITY   = .0001273
INCLINATION    = 97.2820
RA_OF_ASC_NODE = 70.0847
ARG_OF_PERICENTER = 74.3671
MEAN_ANOMALY   = 91.0991

EPHEMERIS_TYPE = 0
CLASSIFICATION_TYPE = U
NORAD_CAT_ID   = 67664
ELEMENT_SET_NO = 999
REV_AT_EPOCH   = 190
BSTAR          = -.17409E-2
MEAN_MOTION_DOT = -.1238114E-1
MEAN_MOTION_DDOT = .52115E-3

CCSDS_OMM_VERS = 2.0
CREATION_DATE  = 
ORIGINATOR     = 

OBJECT_NAME    = STARLINK-36399
OBJECT_ID      = 2026-022T
CENTER_NAME    = EARTH
REF_FRAME      = TEME
TIME_SYSTEM    = UTC
MEAN_ELEMENT_THEORY = SGP/SGP4

EPOCH          = 2026-02-06T20:00:01.999008
MEAN_MOTION    = 16.05947459
ECCENTRICITY   = .0001234
INCLINATION    = 97.2820
RA_OF_ASC_NODE = 70.0854
ARG_OF_PERICENTER = 75.2075
MEAN_ANOMALY   = 91.1186

EPHEMERIS_TYPE = 0
CLASSIFICATION_TYPE = U
NORAD_CAT_ID   = 67665
ELEMENT_SET_NO = 999
REV_AT_EPOCH   = 190
BSTAR          = -.1711E-2
MEAN_MOTION_DOT = -.1223527E-1
MEAN_MOTION_DDOT = .51039E-3

CCSDS_OMM_VERS = 2.0
CREATION_DATE  = 
ORIGINATOR     = 

OBJECT_NAME    = STARLINK-36365
OBJECT_ID      = 2026-022U
CENTER_NAME    = EARTH
REF_FRAME      = TEME
TIME_SYSTEM    = UTC
MEAN_ELEMENT_THEORY = SGP/SGP4

EPOCH          = 2026-02-06T20:00:01.999008
MEAN_MOTION    = 16.06104194
ECCENTRICITY   = .0001283
INCLINATION    = 97.2820
RA_OF_ASC_NODE = 70.0859
ARG_OF_PERICENTER = 69.8177
MEAN_ANOMALY   = 97.5906

EPHEMERIS_TYPE = 0
CLASSIFICATION_TYPE = U
NORAD_CAT_ID   = 67666
ELEMENT_SET_NO = 999
REV_AT_EPOCH   = 193
BSTAR          = -.16796E-2
MEAN_MOTION_DOT = -.1212758E-1
MEAN_MOTION_DDOT = .50308E-3

CCSDS_OMM_VERS = 2.0
CREATION_DATE  = 
ORIGINATOR     = 

OBJECT_NAME    = STARLINK-36622
OBJECT_ID      = 2026-022V
CENTER_NAME    = EARTH
REF_FRAME      = TEME
TIME_SYSTEM    = UTC
MEAN_ELEMENT_THEORY = SGP/SGP4

EPOCH          = 2026-02-06T20:00:01.999008
MEAN_MOTION    = 16.06269424
ECCENTRICITY   = .0001203
INCLINATION    = 97.2820
RA_OF_ASC_NODE = 70.0862
ARG_OF_PERICENTER = 74.0427
MEAN_ANOMALY   = 94.4790

EPHEMERIS_TYPE = 0
CLASSIFICATION_TYPE = U
NORAD_CAT_ID   = 67667
ELEMENT_SET_NO = 999
REV_AT_EPOCH   = 193
BSTAR          = -.16423E-2
MEAN_MOTION_DOT = -.1198056E-1
MEAN_MOTION_DDOT = .49285E-3

